{
  "type": "FeatureCollection",
  "features": [
    {"type": "Feature", "id": "atlas:geometry:nissan-leaf-japan-north-america-2010", "properties": {"entity": "atlas:event:electric-scale-and-modular-industry-2010-2014", "label": "Japão–América do Norte — lançamento do Nissan Leaf", "validity": {"from": "2010", "until": "2010", "precision": "year"}, "precision": "route", "confidence": "approximate", "source": "atlas:source:nissan-leaf-history", "purpose": "electric-car-market-launch"}, "geometry": {"type": "LineString", "coordinates": [[139.638, 35.444], [-118.2437, 34.0522]]}},
    {"type": "Feature", "id": "atlas:geometry:bmw-i-munich-leipzig-2011", "properties": {"entity": "atlas:event:electric-scale-and-modular-industry-2010-2014", "label": "Munique–Leipzig — formação da submarca BMW i", "validity": {"from": "2011", "until": "2011", "precision": "year"}, "precision": "route", "confidence": "approximate", "source": "atlas:source:bmw-i-launch", "purpose": "electric-subbrand-industrialization"}, "geometry": {"type": "LineString", "coordinates": [[11.582, 48.1351], [12.3731, 51.3397]]}},
    {"type": "Feature", "id": "atlas:geometry:tesla-model-s-fremont-2012", "properties": {"entity": "atlas:event:electric-scale-and-modular-industry-2010-2014", "label": "Fremont — primeiras entregas do Tesla Model S", "validity": {"from": "2012", "until": "2012", "precision": "year"}, "precision": "facility-approximate", "confidence": "verified", "source": "atlas:source:tesla-model-s-deliveries", "purpose": "electric-car-production"}, "geometry": {"type": "Point", "coordinates": [-121.9886, 37.5485]}},
    {"type": "Feature", "id": "atlas:geometry:bmw-i3-leipzig-2013", "properties": {"entity": "atlas:event:electric-scale-and-modular-industry-2010-2014", "label": "Leipzig — industrialização do BMW i3", "validity": {"from": "2013", "until": "2013", "precision": "year"}, "precision": "city", "confidence": "probable", "source": "atlas:source:bmw-group-history", "purpose": "electric-car-industrialization"}, "geometry": {"type": "Point", "coordinates": [12.3731, 51.3397]}},
    {"type": "Feature", "id": "atlas:geometry:volkswagen-mqb-wolfsburg-europe-2014", "properties": {"entity": "atlas:event:electric-scale-and-modular-industry-2010-2014", "label": "Wolfsburg–Europa — difusão da plataforma MQB", "validity": {"from": "2014", "until": "2014", "precision": "year"}, "precision": "approximate", "confidence": "verified", "source": "atlas:source:volkswagen-mqb-history", "purpose": "modular-platform-diffusion"}, "geometry": {"type": "Point", "coordinates": [10.786, 52.423]}},
    {"type": "Feature", "id": "atlas:geometry:epa-volkswagen-us-germany-2015", "properties": {"entity": "atlas:event:emissions-trust-and-affordable-range-2015-2017", "label": "Estados Unidos–Alemanha — violações de emissões da Volkswagen", "validity": {"from": "2015", "until": "2015", "precision": "year"}, "precision": "route", "confidence": "approximate", "source": "atlas:source:epa-volkswagen-violations", "purpose": "regulatory-industrial-link"}, "geometry": {"type": "LineString", "coordinates": [[-77.0369, 38.9072], [10.786, 52.423]]}},
    {"type": "Feature", "id": "atlas:geometry:gm-bolt-michigan-2016", "properties": {"entity": "atlas:event:emissions-trust-and-affordable-range-2015-2017", "label": "Michigan — lançamento industrial do Chevrolet Bolt EV", "validity": {"from": "2016", "until": "2016", "precision": "year"}, "precision": "approximate", "confidence": "verified", "source": "atlas:source:gm-bolt-2016", "purpose": "affordable-range-electric-car"}, "geometry": {"type": "Point", "coordinates": [-84.5361, 43.3266]}},
    {"type": "Feature", "id": "atlas:geometry:tesla-model3-fremont-nevada-2017", "properties": {"entity": "atlas:event:emissions-trust-and-affordable-range-2015-2017", "label": "Fremont–Nevada — produção e cadeia do Tesla Model 3", "validity": {"from": "2017", "until": "2017", "precision": "year"}, "precision": "route", "confidence": "approximate", "source": "atlas:source:tesla-model3-2017", "purpose": "electric-car-and-battery-production"}, "geometry": {"type": "LineString", "coordinates": [[-121.9886, 37.5485], [-119.2065, 39.5387]]}},
    {"type": "Feature", "id": "atlas:geometry:volkswagen-id3-frankfurt-zwickau-2019", "properties": {"entity": "atlas:event:real-world-testing-and-electric-realignment-2018-2019", "label": "Frankfurt–Zwickau — estreia e industrialização do Volkswagen ID.3", "validity": {"from": "2019", "until": "2019", "precision": "year"}, "precision": "route", "confidence": "approximate", "source": "atlas:source:volkswagen-id3-premiere", "purpose": "electric-car-debut-and-production"}, "geometry": {"type": "LineString", "coordinates": [[8.6821, 50.1109], [12.496, 50.718]]}}
  ]
}
