{
  "type": "FeatureCollection",
  "features": [
    {
      "type": "Feature",
      "id": "atlas:geometry:bmw-rosslyn-full-manufacturing-1973",
      "properties": {
        "entity": "atlas:event:bmw-establishes-full-manufacturing-presence-at-rosslyn",
        "label": "Rosslyn — presença fabril integral da BMW",
        "validity": {"from": "1973", "until": "1973", "precision": "year"},
        "precision": "facility-approximate",
        "confidence": "verified",
        "source": "atlas:source:bmw-group-bmw-group-announces-investment-in-electrification-of-south-africa-s-rosslyn-plant",
        "purpose": "manufacturing-localization"
      },
      "geometry": {"type": "Point", "coordinates": [28.11, -25.67]}
    },
    {
      "type": "Feature",
      "id": "atlas:geometry:mercedes-300sd-stuttgart-north-america-1977",
      "properties": {
        "entity": "atlas:event:digital-safety-and-second-oil-shock-1977-1979",
        "label": "Stuttgart–América do Norte — introdução do Mercedes-Benz 300 SD",
        "validity": {"from": "1977", "until": "1977", "precision": "year"},
        "precision": "route",
        "confidence": "approximate",
        "source": "atlas:source:mercedes-s-class-history",
        "purpose": "passenger-car-market-introduction"
      },
      "geometry": {"type": "LineString", "coordinates": [[9.1829, 48.7758], [-74.006, 40.7128]]}
    },
    {
      "type": "Feature",
      "id": "atlas:geometry:audi-quattro-ingolstadt-geneva-1980",
      "properties": {
        "entity": "atlas:event:traction-safety-and-global-production-1980-1984",
        "label": "Ingolstadt–Genebra — apresentação do Audi quattro",
        "validity": {"from": "1980", "until": "1980", "precision": "year"},
        "precision": "route",
        "confidence": "approximate",
        "source": "atlas:source:audi-company-history-quattro",
        "purpose": "vehicle-debut-editorial-route"
      },
      "geometry": {"type": "LineString", "coordinates": [[11.4257, 48.7665], [6.1432, 46.2044]]}
    },
    {
      "type": "Feature",
      "id": "atlas:geometry:honda-marysville-global-production-1982-1984",
      "properties": {
        "entity": "atlas:event:traction-safety-and-global-production-1980-1984",
        "label": "Marysville — produção automobilística japonesa nos Estados Unidos",
        "validity": {"from": "1982", "until": "1984", "precision": "range"},
        "precision": "facility-approximate",
        "confidence": "verified",
        "source": "atlas:source:honda-us-production-history",
        "purpose": "transnational-manufacturing"
      },
      "geometry": {"type": "Point", "coordinates": [-83.367, 40.236]}
    },
    {
      "type": "Feature",
      "id": "atlas:geometry:honda-acura-us-localization-1986",
      "properties": {
        "entity": "atlas:event:brands-localization-and-roadster-revival-1985-1989",
        "label": "Estados Unidos — lançamento da Acura em 1986",
        "validity": {"from": "1986", "until": "1986", "precision": "year"},
        "precision": "approximate",
        "confidence": "verified",
        "source": "atlas:source:honda-fifty-years-america",
        "purpose": "brand-market-localization"
      },
      "geometry": {"type": "Point", "coordinates": [-98.5795, 39.8283]}
    }
  ]
}
