{
  "type": "FeatureCollection",
  "features": [
    {"type": "Feature", "id": "atlas:geometry:europe-production-disruption-2020", "properties": {"entity": "atlas:event:pandemic-disruption-and-electric-resilience-2020-2021", "label": "Europa — paralisações da produção automotiva em 2020", "validity": {"from": "2020", "until": "2020", "precision": "year"}, "precision": "approximate", "confidence": "verified", "source": "atlas:source:acea-covid-production-2020", "purpose": "pandemic-production-disruption"}, "geometry": {"type": "Point", "coordinates": [10.0, 50.0]}},
    {"type": "Feature", "id": "atlas:geometry:china-europe-us-electric-resilience-2021", "properties": {"entity": "atlas:event:pandemic-disruption-and-electric-resilience-2020-2021", "label": "China–Europa–Estados Unidos — resiliência das vendas elétricas", "validity": {"from": "2021", "until": "2021", "precision": "year"}, "precision": "approximate", "confidence": "verified", "source": "atlas:source:iea-global-ev-outlook-2022", "purpose": "electric-market-comparison"}, "geometry": {"type": "MultiPoint", "coordinates": [[104.1954, 35.8617], [10.0, 50.0], [-98.5795, 39.8283]]}},
    {"type": "Feature", "id": "atlas:geometry:global-electric-markets-policy-2023", "properties": {"entity": "atlas:event:policy-scale-and-electric-trade-2022-2024", "label": "China–Europa–Estados Unidos — escala elétrica e política industrial", "validity": {"from": "2023", "until": "2023", "precision": "year"}, "precision": "approximate", "confidence": "verified", "source": "atlas:source:iea-global-ev-outlook-2024", "purpose": "electric-market-comparison"}, "geometry": {"type": "MultiPoint", "coordinates": [[104.1954, 35.8617], [10.0, 50.0], [-98.5795, 39.8283]]}},
    {"type": "Feature", "id": "atlas:geometry:eu-china-bev-trade-2024", "properties": {"entity": "atlas:event:policy-scale-and-electric-trade-2022-2024", "label": "China–União Europeia — medidas comerciais sobre veículos elétricos", "validity": {"from": "2024", "until": "2024", "precision": "year"}, "precision": "route", "confidence": "approximate", "source": "atlas:source:eu-bev-duties-2024", "purpose": "electric-vehicle-trade-policy"}, "geometry": {"type": "LineString", "coordinates": [[104.1954, 35.8617], [4.3517, 50.8503]]}}
  ]
}
